#aV2020  5  6  0  0  0.00000000     288 DD+AD WGS84 FIT  NGA
## 2104 259200.00000000   300.00000000 58975 0.0000000000000
+   32     1  2  3  4  5  6  7  8  9 10 11 12 13 14 15 16 17
+         18 19 20 21 22 23 24 25 26 27 28 29 30 31 32  0  0
+          0  0  0  0  0  0  0  0  0  0  0  0  0  0  0  0  0
+          0  0  0  0  0  0  0  0  0  0  0  0  0  0  0  0  0
+          0  0  0  0  0  0  0  0  0  0  0  0  0  0  0  0  0
++         2  2  2  2  2  2  2  2  2  2  2  2  2  2  2  2  2
++         2  2  2  2  2  2  2  2  2  2  2  2  2  2  2  0  0
++         0  0  0  0  0  0  0  0  0  0  0  0  0  0  0  0  0
++         0  0  0  0  0  0  0  0  0  0  0  0  0  0  0  0  0
++         0  0  0  0  0  0  0  0  0  0  0  0  0  0  0  0  0
%c cc cc ccc ccc cccc cccc cccc cccc ccccc ccccc ccccc ccccc
%c cc cc ccc ccc cccc cccc cccc cccc ccccc ccccc ccccc ccccc
%f  0.0000000  0.000000000  0.00000000000  0.000000000000000
%f  0.0000000  0.000000000  0.00000000000  0.000000000000000
%i    0    0    0    0      0      0      0      0         0
%i    0    0    0    0      0      0      0      0         0
/*      NGA, ST. LOUIS,MO.                                  
/*   EPHEMERIS COMPUTED FROM 2 DAYS OF DATA                 
/*   EPOCHA v5 SMOOTHER                                     
/*   G1762 IERS2010 SATAF SATAPC                            
*  2020  5  6 10 20  0.00000000
P  1 -21940.834485 -14803.880631   3610.862241   -374.555349                    
V  1  -2509.107005  -4520.891699 -31525.982165     -0.077486                    
P  2   8404.633809  19784.878587  16277.278307   -451.342194                    
V  2 -16959.354990  -9741.506599  21393.382712     -0.062527                    
P  3 -13225.476083  -9440.312754  20969.890926   -167.044830                    
V  3   4811.657344 -26300.863544  -8680.080051     -0.117867                    
P  4 -22459.182448  -2515.785556  13989.860971    -85.682068                    
V  4  16025.959751  -7895.547433  24299.159255     -0.050237                    
P  5   2770.140047  25051.556761  -8185.524181    -12.154634                    
V  5  -4245.052187   9832.626070  29330.740230     -0.007020                    
P  6  -2504.432304  16088.493326  21027.775744   -266.442558                    
V  6 -21113.281829 -16081.114212   9858.790691     -0.070753                    
P  7 -19940.725896   -372.378287 -17472.409122   -274.808156                    
V  7 -16447.075750 -15612.974546  18300.711694     -0.086502                    
P  8 -13560.315989  -9806.857807 -20670.117485    -33.042987                    
V  8  24010.527317 -10482.383380 -10520.506580     -0.012711                    
P  9 -25275.212754   7021.842069   4176.012238   -211.925958                    
V  9   3844.641317  -4805.049537  30968.683534     -0.074080                    
P 10  11571.427938 -20460.400753 -12046.480404   -332.473496                    
V 10     59.107798  15704.493933 -26651.122402     -0.117235                    
P 11 -20389.048082 -13093.545847 -11006.271055   -285.119823                    
V 11  13979.771393   -874.054137 -26333.012553      0.107267                    
P 12  11688.247993  11461.209380  20715.298491    121.117435                    
V 12  -6639.442512  25930.904720 -10325.090451     -0.043612                    
P 13   4850.677573  14353.569174 -21935.534002      7.778439                    
V 13 -26722.740910   6674.501899  -1461.407679      0.030221                    
P 14  10456.497776 -16454.631149  18298.809601    -14.864438                    
V 14  22119.783027  -4929.260533 -17588.069681      0.025871                    
P 15  15420.390465   8992.804610 -20080.197245   -233.108695                    
V 15 -21602.703278  12319.112574 -10866.642292      0.026199                    
P 16   -976.258145 -24380.401492 -10139.167815   -154.912842                    
V 16   5281.338315 -11754.985026  28797.325368     -0.044717                    
P 17 -19033.555880  14468.919795  11937.695926    260.295020                    
V 17 -14301.106426   2846.651921 -27260.305253      0.060862                    
P 18  20210.353105   1460.567653 -17202.192554    180.681304                    
V 18  15567.933890  15353.863289  19571.064159      0.125417                    
P 19 -12888.295571  15352.130410  17118.240840   -162.509948                    
V 19 -21873.341487   4473.758171 -20144.221133      0.051095                    
P 20  14728.112941 -10268.316996 -19585.523498    527.732768                    
V 20   1030.130683  24893.621041 -12542.014240     -0.000372                    
P 21  19562.873128  -1048.726368 -17022.567170     -5.002045                    
V 21  17792.926679  15186.514317  18947.505342      0.048863                    
P 22 -10958.427353 -18110.974945  16339.827143   -783.139553                    
V 22   3705.516612 -20179.863119 -20018.142237      0.010872                    
P 23 -25533.677675   6062.140758   5755.451171   -116.438437                    
V 23   5157.396449  -5212.181835  29982.135026      0.030781                    
P 24  22350.408467  14632.988838   1376.872113    -12.653079                    
V 24   -278.840160   3791.603427 -30920.321367     -0.004762                    
P 25  15127.708089   -142.024045  21571.751182      1.908210                    
V 25  -3956.078065  27695.990817   3184.465248      0.029196                    
P 26   4594.367191 -25956.880030   1988.243981    201.166246                    
V 26   3111.961880   2985.308665  31449.793231      0.072421                    
P 27  -2022.655788 -15036.828490 -21907.200437   -286.259653                    
V 27  25772.470869  -9515.003319   4506.577757     -0.102570                    
P 28 -12258.279986  21163.363238  -9948.746134    719.712257                    
V 28   1266.923311 -13523.879488 -28520.137548     -0.031259                    
P 29  25443.700701  -3018.091966   6994.640251    -97.881632                    
V 29  -7949.480865   4459.615407  30629.709468     -0.089685                    
P 30 -12196.530885  10072.292850 -21312.224147   -214.087643                    
V 30 -20436.398490 -17978.932050   2982.141044     -0.082878                    
P 31   1942.266847 -16966.455749  20180.939150    -40.598461                    
V 31  20526.986939  15767.160378  11704.545503     -0.024112                    
P 32  17615.930583 -15922.529679  11830.394342    274.820711                    
V 32  14852.202790  -3115.460730 -26633.276279      0.078813                    
EOF
